{
  "type": "FeatureCollection",
  "features": [
    {
      "type": "Feature",
      "properties": {
        "norad_id": 30817,
        "name": "FENGYUN 1C DEB",
        "group": "fengyun-1c-debris",
        "lat": -49.20212750328994,
        "lon": -7.113670684729561,
        "alt_km": 891.9629676317109,
        "timestamp": "2025-12-18T13:51:49.962753+00:00",
        "meta_object_name": "FENGYUN 1C DEB",
        "meta_object_id": "1999-025AVB",
        "meta_epoch": "2025-12-17T22:40:25.420224",
        "meta_mean_motion": 14.0072427,
        "meta_eccentricity": 0.00574415,
        "meta_inclination": 98.7853,
        "meta_ra_of_asc_node": 341.9565,
        "meta_arg_of_pericenter": 229.9755,
        "meta_mean_anomaly": 129.6362,
        "meta_ephemeris_type": 0,
        "meta_classification_type": "U",
        "meta_norad_cat_id": 30817,
        "meta_element_set_no": 999,
        "meta_rev_at_epoch": 95982,
        "meta_bstar": 0.00015830171,
        "meta_mean_motion_dot": 1.97e-06,
        "meta_mean_motion_ddot": 0,
        "tle_line1": "1 30817U 99025AVB 25351.94473866  .00000197  00000+0  15830-3 0  9993",
        "tle_line2": "2 30817  98.7853 341.9565 0057441 229.9755 129.6362 14.00724270959823"
      },
      "geometry": {
        "type": "Point",
        "coordinates": [
          -7.113670684729561,
          -49.20212750328994
        ]
      }
    },
    {
      "type": "Feature",
      "properties": {
        "norad_id": 30820,
        "name": "FENGYUN 1C DEB",
        "group": "fengyun-1c-debris",
        "lat": -67.37939031831488,
        "lon": -112.71998740505394,
        "alt_km": 819.735242093504,
        "timestamp": "2025-12-18T13:51:49.962763+00:00",
        "meta_object_name": "FENGYUN 1C DEB",
        "meta_object_id": "1999-025AVE",
        "meta_epoch": "2025-12-18T06:14:30.264000",
        "meta_mean_motion": 14.21444251,
        "meta_eccentricity": 0.0052105,
        "meta_inclination": 98.6769,
        "meta_ra_of_asc_node": 88.4667,
        "meta_arg_of_pericenter": 171.8509,
        "meta_mean_anomaly": 252.2999,
        "meta_ephemeris_type": 0,
        "meta_classification_type": "U",
        "meta_norad_cat_id": 30820,
        "meta_element_set_no": 999,
        "meta_rev_at_epoch": 96502,
        "meta_bstar": 0.0015052852,
        "meta_mean_motion_dot": 3.294e-05,
        "meta_mean_motion_ddot": 0,
        "tle_line1": "1 30820U 99025AVE 25352.26007250  .00003294  00000+0  15053-2 0  9990",
        "tle_line2": "2 30820  98.6769  88.4667 0052105 171.8509 252.2999 14.21444251965021"
      },
      "geometry": {
        "type": "Point",
        "coordinates": [
          -112.71998740505394,
          -67.37939031831488
        ]
      }
    },
    {
      "type": "Feature",
      "properties": {
        "norad_id": 30821,
        "name": "FENGYUN 1C DEB",
        "group": "fengyun-1c-debris",
        "lat": 7.989644332552685,
        "lon": -43.09461771281052,
        "alt_km": 669.6092039021278,
        "timestamp": "2025-12-18T13:51:49.962773+00:00",
        "meta_object_name": "FENGYUN 1C DEB",
        "meta_object_id": "1999-025AVF",
        "meta_epoch": "2025-12-17T21:12:31.876128",
        "meta_mean_motion": 14.49694043,
        "meta_eccentricity": 0.00864423,
        "meta_inclination": 99.1028,
        "meta_ra_of_asc_node": 134.8671,
        "meta_arg_of_pericenter": 190.5925,
        "meta_mean_anomaly": 321.8469,
        "meta_ephemeris_type": 0,
        "meta_classification_type": "U",
        "meta_norad_cat_id": 30821,
        "meta_element_set_no": 999,
        "meta_rev_at_epoch": 98863,
        "meta_bstar": 0.00067263678,
        "meta_mean_motion_dot": 2.66e-05,
        "meta_mean_motion_ddot": 0,
        "tle_line1": "1 30821U 99025AVF 25351.88370227  .00002660  00000+0  67264-3 0  9993",
        "tle_line2": "2 30821  99.1028 134.8671 0086442 190.5925 321.8469 14.49694043988631"
      },
      "geometry": {
        "type": "Point",
        "coordinates": [
          -43.09461771281052,
          7.989644332552685
        ]
      }
    },
    {
      "type": "Feature",
      "properties": {
        "norad_id": 30822,
        "name": "FENGYUN 1C DEB",
        "group": "fengyun-1c-debris",
        "lat": 2.7966111985449857,
        "lon": 20.05410635074483,
        "alt_km": 860.9203692775018,
        "timestamp": "2025-12-18T13:51:49.962784+00:00",
        "meta_object_name": "FENGYUN 1C DEB",
        "meta_object_id": "1999-025AVG",
        "meta_epoch": "2025-12-18T00:22:43.539744",
        "meta_mean_motion": 14.11349042,
        "meta_eccentricity": 0.00731809,
        "meta_inclination": 98.7347,
        "meta_ra_of_asc_node": 19.9377,
        "meta_arg_of_pericenter": 270.1851,
        "meta_mean_anomaly": 118.687,
        "meta_ephemeris_type": 0,
        "meta_classification_type": "U",
        "meta_norad_cat_id": 30822,
        "meta_element_set_no": 999,
        "meta_rev_at_epoch": 96776,
        "meta_bstar": 0.00033178674,
        "meta_mean_motion_dot": 5.72e-06,
        "meta_mean_motion_ddot": 0,
        "tle_line1": "1 30822U 99025AVG 25352.01578171  .00000572  00000+0  33179-3 0  9996",
        "tle_line2": "2 30822  98.7347  19.9377 0073180 270.1851 118.6870 14.11349042967769"
      },
      "geometry": {
        "type": "Point",
        "coordinates": [
          20.05410635074483,
          2.7966111985449857
        ]
      }
    },
    {
      "type": "Feature",
      "properties": {
        "norad_id": 30823,
        "name": "FENGYUN 1C DEB",
        "group": "fengyun-1c-debris",
        "lat": -80.8229519845026,
        "lon": -153.9280686634992,
        "alt_km": 980.8060136121667,
        "timestamp": "2025-12-18T13:51:49.962795+00:00",
        "meta_object_name": "FENGYUN 1C DEB",
        "meta_object_id": "1999-025AVH",
        "meta_epoch": "2025-12-17T04:38:02.078304",
        "meta_mean_motion": 14.02562134,
        "meta_eccentricity": 0.01341956,
        "meta_inclination": 98.7632,
        "meta_ra_of_asc_node": 132.037,
        "meta_arg_of_pericenter": 72.1825,
        "meta_mean_anomaly": 53.9858,
        "meta_ephemeris_type": 0,
        "meta_classification_type": "U",
        "meta_norad_cat_id": 30823,
        "meta_element_set_no": 999,
        "meta_rev_at_epoch": 96096,
        "meta_bstar": 0.00027095191,
        "meta_mean_motion_dot": 4.11e-06,
        "meta_mean_motion_ddot": 0,
        "tle_line1": "1 30823U 99025AVH 25351.19307961  .00000411  00000+0  27095-3 0  9994",
        "tle_line2": "2 30823  98.7632 132.0370 0134195  72.1825  53.9858 14.02562134960963"
      },
      "geometry": {
        "type": "Point",
        "coordinates": [
          -153.9280686634992,
          -80.8229519845026
        ]
      }
    },
    {
      "type": "Feature",
      "properties": {
        "norad_id": 30826,
        "name": "FENGYUN 1C DEB",
        "group": "fengyun-1c-debris",
        "lat": -80.92025367746119,
        "lon": -69.41286253940919,
        "alt_km": 593.9138980289363,
        "timestamp": "2025-12-18T13:51:49.962805+00:00",
        "meta_object_name": "FENGYUN 1C DEB",
        "meta_object_id": "1999-025AVL",
        "meta_epoch": "2025-12-18T00:22:54.503040",
        "meta_mean_motion": 14.82281638,
        "meta_eccentricity": 0.01450106,
        "meta_inclination": 98.8665,
        "meta_ra_of_asc_node": 187.5962,
        "meta_arg_of_pericenter": 340.1357,
        "meta_mean_anomaly": 173.6239,
        "meta_ephemeris_type": 0,
        "meta_classification_type": "U",
        "meta_norad_cat_id": 30826,
        "meta_element_set_no": 999,
        "meta_rev_at_epoch": 364,
        "meta_bstar": 0.00038577526,
        "meta_mean_motion_dot": 3.626e-05,
        "meta_mean_motion_ddot": 0,
        "tle_line1": "1 30826U 99025AVL 25352.01590860  .00003626  00000+0  38578-3 0  9990",
        "tle_line2": "2 30826  98.8665 187.5962 0145010 340.1357 173.6239 14.82281638  3642"
      },
      "geometry": {
        "type": "Point",
        "coordinates": [
          -69.41286253940919,
          -80.92025367746119
        ]
      }
    },
    {
      "type": "Feature",
      "properties": {
        "norad_id": 30827,
        "name": "FENGYUN 1C DEB",
        "group": "fengyun-1c-debris",
        "lat": -30.679950629665555,
        "lon": 152.86922612174675,
        "alt_km": 751.0678943691655,
        "timestamp": "2025-12-18T13:51:49.962815+00:00",
        "meta_object_name": "FENGYUN 1C DEB",
        "meta_object_id": "1999-025AVM",
        "meta_epoch": "2025-12-17T10:10:02.381952",
        "meta_mean_motion": 14.37899318,
        "meta_eccentricity": 0.00435535,
        "meta_inclination": 98.9937,
        "meta_ra_of_asc_node": 337.0536,
        "meta_arg_of_pericenter": 164.8519,
        "meta_mean_anomaly": 195.3982,
        "meta_ephemeris_type": 0,
        "meta_classification_type": "U",
        "meta_norad_cat_id": 30827,
        "meta_element_set_no": 999,
        "meta_rev_at_epoch": 96616,
        "meta_bstar": 0.0023728084,
        "meta_mean_motion_dot": 7.201e-05,
        "meta_mean_motion_ddot": 0,
        "tle_line1": "1 30827U 99025AVM 25351.42363868  .00007201  00000+0  23728-2 0  9994",
        "tle_line2": "2 30827  98.9937 337.0536 0043553 164.8519 195.3982 14.37899318966166"
      },
      "geometry": {
        "type": "Point",
        "coordinates": [
          152.86922612174675,
          -30.679950629665555
        ]
      }
    }
  ]
}